{"type": "FeatureCollection", "features": [{"type": "Feature", "geometry": {"type": "LineString", "coordinates": [[126.9779704135259, 37.566465879937105], [126.9784156, 37.5664716], [126.978415, 37.5663811]]}, "properties": {"edge_id": 231432}}, {"type": "Feature", "geometry": {"type": "LineString", "coordinates": [[126.978415, 37.5663811], [126.9785213, 37.5663475]]}, "properties": {"edge_id": 92952}}, {"type": "Feature", "geometry": {"type": "LineString", "coordinates": [[126.9785213, 37.5663475], [126.9785628, 37.5663395]]}, "properties": {"edge_id": 92953}}, {"type": "Feature", "geometry": {"type": "LineString", "coordinates": [[126.9785628, 37.5663395], [126.9786557, 37.5663216]]}, "properties": {"edge_id": 92954}}, {"type": "Feature", "geometry": {"type": "LineString", "coordinates": [[126.9786557, 37.5663216], [126.9789067, 37.5662732]]}, "properties": {"edge_id": 92955}}, {"type": "Feature", "geometry": {"type": "LineString", "coordinates": [[126.9789067, 37.5662732], [126.9789821, 37.5662586]]}, "properties": {"edge_id": 92956}}, {"type": "Feature", "geometry": {"type": "LineString", "coordinates": [[126.9789821, 37.5662586], [126.9790108, 37.5662531]]}, "properties": {"edge_id": 92957}}, {"type": "Feature", "geometry": {"type": "LineString", "coordinates": [[126.9790108, 37.5662531], [126.9791423, 37.5662463]]}, "properties": {"edge_id": 320533}}, {"type": "Feature", "geometry": {"type": "LineString", "coordinates": [[126.9791423, 37.5662463], [126.9791959, 37.5668992]]}, "properties": {"edge_id": 162737}}, {"type": "Feature", "geometry": {"type": "LineString", "coordinates": [[126.9791959, 37.5668992], [126.9797857, 37.5668776]]}, "properties": {"edge_id": 53325}}, {"type": "Feature", "geometry": {"type": "LineString", "coordinates": [[126.9797857, 37.5668776], [126.9797921, 37.5673446]]}, "properties": {"edge_id": 53266}}, {"type": "Feature", "geometry": {"type": "LineString", "coordinates": [[126.9797921, 37.5673446], [126.9804788, 37.5673231]]}, "properties": {"edge_id": 280365}}, {"type": "Feature", "geometry": {"type": "LineString", "coordinates": [[126.9804788, 37.5673231], [126.9805828, 37.5673118]]}, "properties": {"edge_id": 280368}}, {"type": "Feature", "geometry": {"type": "LineString", "coordinates": [[126.9805828, 37.5673118], [126.9806489, 37.5676971]]}, "properties": {"edge_id": 53192}}, {"type": "Feature", "geometry": {"type": "LineString", "coordinates": [[126.9806489, 37.5676971], [126.9813331, 37.5678901]]}, "properties": {"edge_id": 53286}}, {"type": "Feature", "geometry": {"type": "LineString", "coordinates": [[126.9813331, 37.5678901], [126.9820259, 37.5679833]]}, "properties": {"edge_id": 53287}}, {"type": "Feature", "geometry": {"type": "LineString", "coordinates": [[126.9820259, 37.5679833], [126.9820502, 37.5679877]]}, "properties": {"edge_id": 53288}}, {"type": "Feature", "geometry": {"type": "LineString", "coordinates": [[126.9820502, 37.5679877], [126.9821981, 37.5680142], [126.982738, 37.5679812]]}, "properties": {"edge_id": 53289}}, {"type": "Feature", "geometry": {"type": "LineString", "coordinates": [[126.982738, 37.5679812], [126.9827348, 37.5686066]]}, "properties": {"edge_id": 47155}}, {"type": "Feature", "geometry": {"type": "LineString", "coordinates": [[126.9827348, 37.5686066], [126.9827446, 37.5687378]]}, "properties": {"edge_id": 47156}}, {"type": "Feature", "geometry": {"type": "LineString", "coordinates": [[126.9827446, 37.5687378], [126.9827464, 37.568762]]}, "properties": {"edge_id": 47157}}, {"type": "Feature", "geometry": {"type": "LineString", "coordinates": [[126.9827464, 37.568762], [126.9827769, 37.5690066]]}, "properties": {"edge_id": 82089}}, {"type": "Feature", "geometry": {"type": "LineString", "coordinates": [[126.9827769, 37.5690066], [126.9827849, 37.5690741]]}, "properties": {"edge_id": 142219}}, {"type": "Feature", "geometry": {"type": "LineString", "coordinates": [[126.9827849, 37.5690741], [126.9828055, 37.5691989]]}, "properties": {"edge_id": 294552}}, {"type": "Feature", "geometry": {"type": "LineString", "coordinates": [[126.9828055, 37.5691989], [126.9828538, 37.5695301]]}, "properties": {"edge_id": 294553}}, {"type": "Feature", "geometry": {"type": "LineString", "coordinates": [[126.9828538, 37.5695301], [126.9828751, 37.5696619]]}, "properties": {"edge_id": 294554}}, {"type": "Feature", "geometry": {"type": "LineString", "coordinates": [[126.9828751, 37.5696619], [126.982946, 37.5700618]]}, "properties": {"edge_id": 294555}}, {"type": "Feature", "geometry": {"type": "LineString", "coordinates": [[126.982946, 37.5700618], [126.9830672, 37.5700609]]}, "properties": {"edge_id": 320526}}, {"type": "Feature", "geometry": {"type": "LineString", "coordinates": [[126.9830672, 37.5700609], [126.9830926, 37.5700837]]}, "properties": {"edge_id": 320519}}, {"type": "Feature", "geometry": {"type": "LineString", "coordinates": [[126.9830926, 37.5700837], [126.9831005, 37.5701233]]}, "properties": {"edge_id": 320521}}, {"type": "Feature", "geometry": {"type": "LineString", "coordinates": [[126.9831005, 37.5701233], [126.9831128, 37.5701579]]}, "properties": {"edge_id": 320518}}, {"type": "Feature", "geometry": {"type": "LineString", "coordinates": [[126.9831128, 37.5701579], [126.9831295, 37.570205]]}, "properties": {"edge_id": 320517}}, {"type": "Feature", "geometry": {"type": "LineString", "coordinates": [[126.9831295, 37.570205], [126.983141, 37.5702375]]}, "properties": {"edge_id": 320516}}, {"type": "Feature", "geometry": {"type": "LineString", "coordinates": [[126.983141, 37.5702375], [126.9831503, 37.5702638]]}, "properties": {"edge_id": 320515}}, {"type": "Feature", "geometry": {"type": "LineString", "coordinates": [[126.9831503, 37.5702638], [126.9834576, 37.5702733]]}, "properties": {"edge_id": 39719}}, {"type": "Feature", "geometry": {"type": "LineString", "coordinates": [[126.9834576, 37.5702733], [126.984078, 37.570268]]}, "properties": {"edge_id": 39718}}, {"type": "Feature", "geometry": {"type": "LineString", "coordinates": [[126.984078, 37.570268], [126.9841169, 37.5706438]]}, "properties": {"edge_id": 53263}}, {"type": "Feature", "geometry": {"type": "LineString", "coordinates": [[126.9779704135259, 37.566465879937105], [126.9784156, 37.5664716]]}, "properties": {"edge_id": 53263}}, {"type": "Feature", "geometry": {"type": "LineString", "coordinates": [[126.9784156, 37.5664716], [126.978415, 37.5663811]]}, "properties": {"edge_id": 39718}}, {"type": "Feature", "geometry": {"type": "LineString", "coordinates": [[126.978415, 37.5663811], [126.9785213, 37.5663475]]}, "properties": {"edge_id": 39719}}, {"type": "Feature", "geometry": {"type": "LineString", "coordinates": [[126.9785213, 37.5663475], [126.9785628, 37.5663395]]}, "properties": {"edge_id": 39720}}, {"type": "Feature", "geometry": {"type": "LineString", "coordinates": [[126.9785628, 37.5663395], [126.9786557, 37.5663216]]}, "properties": {"edge_id": 319649}}, {"type": "Feature", "geometry": {"type": "LineString", "coordinates": [[126.9786557, 37.5663216], [126.9789067, 37.5662732]]}, "properties": {"edge_id": 319650}}, {"type": "Feature", "geometry": {"type": "LineString", "coordinates": [[126.9789067, 37.5662732], [126.9789821, 37.5662586], [126.9790108, 37.5662531], [126.9791423, 37.5662463]]}, "properties": {"edge_id": 319651}}, {"type": "Feature", "geometry": {"type": "LineString", "coordinates": [[126.9791423, 37.5662463], [126.9791959, 37.5668992]]}, "properties": {"edge_id": 337496}}, {"type": "Feature", "geometry": {"type": "LineString", "coordinates": [[126.9791959, 37.5668992], [126.9797857, 37.5668776]]}, "properties": {"edge_id": 337497}}, {"type": "Feature", "geometry": {"type": "LineString", "coordinates": [[126.9797857, 37.5668776], [126.9797921, 37.5673446]]}, "properties": {"edge_id": 337498}}, {"type": "Feature", "geometry": {"type": "LineString", "coordinates": [[126.9797921, 37.5673446], [126.9804788, 37.5673231]]}, "properties": {"edge_id": 337499}}, {"type": "Feature", "geometry": {"type": "LineString", "coordinates": [[126.9804788, 37.5673231], [126.9805828, 37.5673118]]}, "properties": {"edge_id": 337500}}, {"type": "Feature", "geometry": {"type": "LineString", "coordinates": [[126.9805828, 37.5673118], [126.9806489, 37.5676971]]}, "properties": {"edge_id": 337501}}, {"type": "Feature", "geometry": {"type": "LineString", "coordinates": [[126.9806489, 37.5676971], [126.9813331, 37.5678901], [126.9820259, 37.5679833], [126.9820502, 37.5679877], [126.9821981, 37.5680142]]}, "properties": {"edge_id": 337502}}, {"type": "Feature", "geometry": {"type": "LineString", "coordinates": [[126.9821981, 37.5680142], [126.982738, 37.5679812], [126.9827348, 37.5686066], [126.9827446, 37.5687378]]}, "properties": {"edge_id": 337503}}, {"type": "Feature", "geometry": {"type": "LineString", "coordinates": [[126.9827446, 37.5687378], [126.9827464, 37.568762]]}, "properties": {"edge_id": 212968}}, {"type": "Feature", "geometry": {"type": "LineString", "coordinates": [[126.9827464, 37.568762], [126.9827769, 37.5690066], [126.9827849, 37.5690741]]}, "properties": {"edge_id": 212969}}, {"type": "Feature", "geometry": {"type": "LineString", "coordinates": [[126.9827849, 37.5690741], [126.9828055, 37.5691989]]}, "properties": {"edge_id": 212970}}, {"type": "Feature", "geometry": {"type": "LineString", "coordinates": [[126.9828055, 37.5691989], [126.9828538, 37.5695301]]}, "properties": {"edge_id": 212971}}, {"type": "Feature", "geometry": {"type": "LineString", "coordinates": [[126.9828538, 37.5695301], [126.9828751, 37.5696619]]}, "properties": {"edge_id": 212972}}, {"type": "Feature", "geometry": {"type": "LineString", "coordinates": [[126.9828751, 37.5696619], [126.982946, 37.5700618]]}, "properties": {"edge_id": 212973}}, {"type": "Feature", "geometry": {"type": "LineString", "coordinates": [[126.982946, 37.5700618], [126.9830672, 37.5700609], [126.9830926, 37.5700837]]}, "properties": {"edge_id": 212974}}, {"type": "Feature", "geometry": {"type": "LineString", "coordinates": [[126.9830926, 37.5700837], [126.9831005, 37.5701233]]}, "properties": {"edge_id": 212975}}, {"type": "Feature", "geometry": {"type": "LineString", "coordinates": [[126.9831005, 37.5701233], [126.9831128, 37.5701579]]}, "properties": {"edge_id": 184723}}, {"type": "Feature", "geometry": {"type": "LineString", "coordinates": [[126.9831128, 37.5701579], [126.9831295, 37.570205]]}, "properties": {"edge_id": 184724}}, {"type": "Feature", "geometry": {"type": "LineString", "coordinates": [[126.9831295, 37.570205], [126.983141, 37.5702375]]}, "properties": {"edge_id": 322202}}, {"type": "Feature", "geometry": {"type": "LineString", "coordinates": [[126.983141, 37.5702375], [126.9831503, 37.5702638]]}, "properties": {"edge_id": 322203}}, {"type": "Feature", "geometry": {"type": "LineString", "coordinates": [[126.9831503, 37.5702638], [126.9834576, 37.5702733]]}, "properties": {"edge_id": 322204}}, {"type": "Feature", "geometry": {"type": "LineString", "coordinates": [[126.9834576, 37.5702733], [126.984078, 37.570268]]}, "properties": {"edge_id": 126371}}, {"type": "Feature", "geometry": {"type": "LineString", "coordinates": [[126.984078, 37.570268], [126.9841169, 37.5706438]]}, "properties": {"edge_id": 126372}}, {"type": "Feature", "geometry": {"type": "LineString", "coordinates": [[126.9841169, 37.5706438], [126.984078, 37.570268]]}, "properties": {"edge_id": 212901}}, {"type": "Feature", "geometry": {"type": "LineString", "coordinates": [[126.984078, 37.570268], [126.9834576, 37.5702733]]}, "properties": {"edge_id": 212902}}, {"type": "Feature", "geometry": {"type": "LineString", "coordinates": [[126.9834576, 37.5702733], [126.9831503, 37.5702638]]}, "properties": {"edge_id": 212903}}, {"type": "Feature", "geometry": {"type": "LineString", "coordinates": [[126.9831503, 37.5702638], [126.9829675, 37.5702599], [126.9827992, 37.5702411]]}, "properties": {"edge_id": 314075}}, {"type": "Feature", "geometry": {"type": "LineString", "coordinates": [[126.9827992, 37.5702411], [126.9826313, 37.5702323]]}, "properties": {"edge_id": 152429}}, {"type": "Feature", "geometry": {"type": "LineString", "coordinates": [[126.9826313, 37.5702323], [126.9823079, 37.5702162]]}, "properties": {"edge_id": 152428}}, {"type": "Feature", "geometry": {"type": "LineString", "coordinates": [[126.9823079, 37.5702162], [126.981252, 37.5702281], [126.9810192, 37.5702378]]}, "properties": {"edge_id": 152427}}, {"type": "Feature", "geometry": {"type": "LineString", "coordinates": [[126.9810192, 37.5702378], [126.9795446, 37.5702378], [126.9793378, 37.5702371]]}, "properties": {"edge_id": 152136}}, {"type": "Feature", "geometry": {"type": "LineString", "coordinates": [[126.9793378, 37.5702371], [126.9773681, 37.5702429], [126.9772364, 37.5702427], [126.9770732, 37.5702423], [126.9769008, 37.570242], [126.9755936, 37.5702249], [126.974697, 37.5701626], [126.9738004, 37.5701577], [126.9725488, 37.5701394], [126.9721699, 37.570127], [126.9718424, 37.5700722], [126.9714192, 37.5699053]]}, "properties": {"edge_id": 152135}}, {"type": "Feature", "geometry": {"type": "LineString", "coordinates": [[126.9714192, 37.5699053], [126.9704754, 37.569246], [126.9701049, 37.5689867], [126.9700451, 37.5689542], [126.9694906, 37.5686522], [126.9691067, 37.5683684]]}, "properties": {"edge_id": 152134}}, {"type": "Feature", "geometry": {"type": "LineString", "coordinates": [[126.9691067, 37.5683684], [126.9687704, 37.5680549]]}, "properties": {"edge_id": 152133}}, {"type": "Feature", "geometry": {"type": "LineString", "coordinates": [[126.9687704, 37.5680549], [126.9682763, 37.5676193]]}, "properties": {"edge_id": 50251}}, {"type": "Feature", "geometry": {"type": "LineString", "coordinates": [[126.9682763, 37.5676193], [126.96754, 37.5668212], [126.967264, 37.566557], [126.9670182, 37.5663216]]}, "properties": {"edge_id": 50250}}, {"type": "Feature", "geometry": {"type": "LineString", "coordinates": [[126.9670182, 37.5663216], [126.9667735, 37.5660668], [126.9666872, 37.5659741]]}, "properties": {"edge_id": 50249}}, {"type": "Feature", "geometry": {"type": "LineString", "coordinates": [[126.9666872, 37.5659741], [126.9666548, 37.5659418]]}, "properties": {"edge_id": 50248}}, {"type": "Feature", "geometry": {"type": "LineString", "coordinates": [[126.9666548, 37.5659418], [126.9666225, 37.5659096]]}, "properties": {"edge_id": 152279}}, {"type": "Feature", "geometry": {"type": "LineString", "coordinates": [[126.9666225, 37.5659096], [126.9665825, 37.5658697]]}, "properties": {"edge_id": 53632}}, {"type": "Feature", "geometry": {"type": "LineString", "coordinates": [[126.9665825, 37.5658697], [126.9664644, 37.5657294]]}, "properties": {"edge_id": 53631}}, {"type": "Feature", "geometry": {"type": "LineString", "coordinates": [[126.9664644, 37.5657294], [126.966295, 37.5655361]]}, "properties": {"edge_id": 183140}}, {"type": "Feature", "geometry": {"type": "LineString", "coordinates": [[126.966295, 37.5655361], [126.9658962, 37.565004]]}, "properties": {"edge_id": 49926}}, {"type": "Feature", "geometry": {"type": "LineString", "coordinates": [[126.9658962, 37.565004], [126.9656624, 37.5646916], [126.9654909, 37.5644384]]}, "properties": {"edge_id": 49927}}, {"type": "Feature", "geometry": {"type": "LineString", "coordinates": [[126.9654909, 37.5644384], [126.9654093, 37.5644067], [126.9651921, 37.5643517]]}, "properties": {"edge_id": 49928}}, {"type": "Feature", "geometry": {"type": "LineString", "coordinates": [[126.9651921, 37.5643517], [126.9648799, 37.5643847]]}, "properties": {"edge_id": 80356}}, {"type": "Feature", "geometry": {"type": "LineString", "coordinates": [[126.9648799, 37.5643847], [126.964777, 37.5643927]]}, "properties": {"edge_id": 80357}}, {"type": "Feature", "geometry": {"type": "LineString", "coordinates": [[126.964777, 37.5643927], [126.9640041, 37.5644242]]}, "properties": {"edge_id": 80358}}, {"type": "Feature", "geometry": {"type": "LineString", "coordinates": [[126.9640041, 37.5644242], [126.9638702, 37.5644593]]}, "properties": {"edge_id": 80359}}, {"type": "Feature", "geometry": {"type": "LineString", "coordinates": [[126.9638702, 37.5644593], [126.9637969, 37.5644757], [126.9632644, 37.5646687]]}, "properties": {"edge_id": 80360}}, {"type": "Feature", "geometry": {"type": "LineString", "coordinates": [[126.9632644, 37.5646687], [126.9631854, 37.5646907]]}, "properties": {"edge_id": 80361}}, {"type": "Feature", "geometry": {"type": "LineString", "coordinates": [[126.9631854, 37.5646907], [126.9630232, 37.5647145]]}, "properties": {"edge_id": 80362}}, {"type": "Feature", "geometry": {"type": "LineString", "coordinates": [[126.9630232, 37.5647145], [126.9628303, 37.5647014], [126.9627148, 37.5646681]]}, "properties": {"edge_id": 183139}}, {"type": "Feature", "geometry": {"type": "LineString", "coordinates": [[126.9627148, 37.5646681], [126.9626573, 37.5646341]]}, "properties": {"edge_id": 152053}}, {"type": "Feature", "geometry": {"type": "LineString", "coordinates": [[126.9626573, 37.5646341], [126.9620427, 37.5641182], [126.9619829, 37.5640785]]}, "properties": {"edge_id": 152052}}, {"type": "Feature", "geometry": {"type": "LineString", "coordinates": [[126.9619829, 37.5640785], [126.961897, 37.5640383]]}, "properties": {"edge_id": 152051}}, {"type": "Feature", "geometry": {"type": "LineString", "coordinates": [[126.961897, 37.5640383], [126.9617829, 37.5640052]]}, "properties": {"edge_id": 152050}}, {"type": "Feature", "geometry": {"type": "LineString", "coordinates": [[126.9617829, 37.5640052], [126.9616571, 37.5639906]]}, "properties": {"edge_id": 152049}}, {"type": "Feature", "geometry": {"type": "LineString", "coordinates": [[126.9616571, 37.5639906], [126.9615592, 37.5639936]]}, "properties": {"edge_id": 5020}}, {"type": "Feature", "geometry": {"type": "LineString", "coordinates": [[126.9615592, 37.5639936], [126.9614801, 37.5640021]]}, "properties": {"edge_id": 5019}}]}